IRIDIUM 171             
1 43929U 19002H   25259.59896798  .00000209  00000+0  67480-4 0  9992
2 43929  86.3935 108.2468 0002319  80.7689 279.3769 14.34218855349746
IRIDIUM 170             
1 43930U 19002J   25259.32327607  .00000776  00000+0  11911-3 0  9999
2 43930  86.6051 108.0967 0002413  85.4035 274.7458 14.72260153358962
IRIDIUM 167             
1 43931U 19002K   25259.59262722  .00000057  00000+0  13408-4 0  9991
2 43931  86.3925 107.9932 0002541  83.5169 276.6316 14.34217967349742
IRIDIUM 181             
1 56726U 23068S   25259.46334209  .00000332  00000+0  92580-4 0  9994
2 56726  86.4581 171.1522 0002289  69.5341 290.6106 14.43313881122957
IRIDIUM 177             
1 56727U 23068T   25259.60368454  .00000385  00000+0  47133-4 0  9992
2 56727  86.1918  98.7307 0002426  81.8762 278.2734 14.80229481125899
IRIDIUM 174             
1 56728U 23068U   25259.58280722  .00000717  00000+0  10977-3 0  9995
2 56728  86.6060 108.1079 0002156  96.1091 264.0372 14.72251211125763
IRIDIUM 178             
1 56729U 23068V   25259.59282375  .00001087  00000+0  13957-3 0  9995
2 56729  86.6572 139.7126 0002546  87.7977 272.3536 14.80233693125898
IRIDIUM 179             
1 56730U 23068W   25259.45224764  .00001172  00000+0  15078-3 0  9991
2 56730  86.6830 147.9198 0002895  83.4831 276.6720 14.80236281125872
